ALOS-2                  
1 39766U 14029A   26079.87792420  .00000707  00000+0  10168-3 0  9992
2 39766  97.9196 178.3127 0001757 109.3309 250.8093 14.79411012638529
YAOGAN-29               
1 41038U 15069A   26079.85986219 -.00000034  00000+0  24397-5 0  9996
2 41038  98.0125 108.3182 0001158  20.2661 339.8598 14.83006065557531
ASTRO-H (HITOMI)        
1 41337U 16012A   26079.87128935  .00002757  00000+0  15947-3 0  9994
2 41337  30.9992 284.3870 0009612  83.5875 276.5858 15.10072582553924
HXMT (HUIYAN)           
1 42758U 17034A   26079.83528880  .00005540  00000+0  27846-3 0  9990
2 42758  43.0146 314.7031 0032881 303.8180  55.9539 15.17604252484230
SAOCOM 1A               
1 43641U 18076A   26079.83224881  .00000712  00000+0  95996-4 0  9991
2 43641  97.8891 267.8477 0001511  86.6232 273.5154 14.82153563403011
H-2A R/B                
1 43682U 18084L   26079.18319397  .00012444  00000+0  29373-3 0  9990
2 43682  98.8714 298.8177 0024556 349.1904  10.8807 15.41759166407398
SAOCOM 1B               
1 46265U 20059A   26079.79595381  .00000295  00000+0  43577-4 0  9995
2 46265  97.8889 266.9097 0001442  89.2630 270.8748 14.82146285300394
CSS (TIANHE)            
1 48274U 21035A   26079.59211288  .00017890  00000+0  20859-3 0  9997
2 48274  41.4664 141.7960 0005638 341.7172  18.3464 15.61215573279311
COSMOS 2550             
1 48865U 21056A   26079.66782363 -.00000188  00000+0  12540-6 0  9995
2 48865  67.1449   7.6743 0008200 268.9234  91.0981 15.33831865265144
CZ-2C R/B               
1 52794U 22058K   26079.82479622  .00035185  00000+0  49986-3 0  9998
2 52794  50.1873 260.9749 0041838 248.3971 111.2539 15.54982036211861
CZ-2C R/B               
1 54039U 22132E   26079.45214777  .00030361  00000+0  33517-3 0  9996
2 54039  97.2959  83.1035 0019425  57.1661 303.1464 15.62785581192057
GSLV R/B                
1 54149U 22138AN  26079.68485329  .00002671  00000+0  22936-3 0  9998
2 54149  87.3869 162.6819 0023969 110.0573 250.3241 14.96842691185578
