CCSDS_OMM_VERS = 2.0
CREATION_DATE  = 
ORIGINATOR     = 

OBJECT_NAME    = ALOS-2
OBJECT_ID      = 2014-029A
CENTER_NAME    = EARTH
REF_FRAME      = TEME
TIME_SYSTEM    = UTC
MEAN_ELEMENT_THEORY = SGP/SGP4

EPOCH          = 2026-03-20T21:04:12.650880
MEAN_MOTION    = 14.79411012
ECCENTRICITY   = .0001757
INCLINATION    = 97.9196
RA_OF_ASC_NODE = 178.3127
ARG_OF_PERICENTER = 109.3309
MEAN_ANOMALY   = 250.8093

EPHEMERIS_TYPE = 0
CLASSIFICATION_TYPE = U
NORAD_CAT_ID   = 39766
ELEMENT_SET_NO = 999
REV_AT_EPOCH   = 63852
BSTAR          = .10168E-3
MEAN_MOTION_DOT = .707E-5
MEAN_MOTION_DDOT = 0

CCSDS_OMM_VERS = 2.0
CREATION_DATE  = 
ORIGINATOR     = 

OBJECT_NAME    = YAOGAN-29
OBJECT_ID      = 2015-069A
CENTER_NAME    = EARTH
REF_FRAME      = TEME
TIME_SYSTEM    = UTC
MEAN_ELEMENT_THEORY = SGP/SGP4

EPOCH          = 2026-03-20T20:38:12.093216
MEAN_MOTION    = 14.83006065
ECCENTRICITY   = .0001158
INCLINATION    = 98.0125
RA_OF_ASC_NODE = 108.3182
ARG_OF_PERICENTER = 20.2661
MEAN_ANOMALY   = 339.8598

EPHEMERIS_TYPE = 0
CLASSIFICATION_TYPE = U
NORAD_CAT_ID   = 41038
ELEMENT_SET_NO = 999
REV_AT_EPOCH   = 55753
BSTAR          = .24397E-5
MEAN_MOTION_DOT = -.34E-6
MEAN_MOTION_DDOT = 0

CCSDS_OMM_VERS = 2.0
CREATION_DATE  = 
ORIGINATOR     = 

OBJECT_NAME    = ASTRO-H (HITOMI)
OBJECT_ID      = 2016-012A
CENTER_NAME    = EARTH
REF_FRAME      = TEME
TIME_SYSTEM    = UTC
MEAN_ELEMENT_THEORY = SGP/SGP4

EPOCH          = 2026-03-20T20:54:39.399840
MEAN_MOTION    = 15.10072582
ECCENTRICITY   = .0009612
INCLINATION    = 30.9992
RA_OF_ASC_NODE = 284.3870
ARG_OF_PERICENTER = 83.5875
MEAN_ANOMALY   = 276.5858

EPHEMERIS_TYPE = 0
CLASSIFICATION_TYPE = U
NORAD_CAT_ID   = 41337
ELEMENT_SET_NO = 999
REV_AT_EPOCH   = 55392
BSTAR          = .15947E-3
MEAN_MOTION_DOT = .2757E-4
MEAN_MOTION_DDOT = 0

CCSDS_OMM_VERS = 2.0
CREATION_DATE  = 
ORIGINATOR     = 

OBJECT_NAME    = HXMT (HUIYAN)
OBJECT_ID      = 2017-034A
CENTER_NAME    = EARTH
REF_FRAME      = TEME
TIME_SYSTEM    = UTC
MEAN_ELEMENT_THEORY = SGP/SGP4

EPOCH          = 2026-03-20T20:02:48.952320
MEAN_MOTION    = 15.17604252
ECCENTRICITY   = .0032881
INCLINATION    = 43.0146
RA_OF_ASC_NODE = 314.7031
ARG_OF_PERICENTER = 303.8180
MEAN_ANOMALY   = 55.9539

EPHEMERIS_TYPE = 0
CLASSIFICATION_TYPE = U
NORAD_CAT_ID   = 42758
ELEMENT_SET_NO = 999
REV_AT_EPOCH   = 48423
BSTAR          = .27846E-3
MEAN_MOTION_DOT = .554E-4
MEAN_MOTION_DDOT = 0

CCSDS_OMM_VERS = 2.0
CREATION_DATE  = 
ORIGINATOR     = 

OBJECT_NAME    = SAOCOM 1A
OBJECT_ID      = 2018-076A
CENTER_NAME    = EARTH
REF_FRAME      = TEME
TIME_SYSTEM    = UTC
MEAN_ELEMENT_THEORY = SGP/SGP4

EPOCH          = 2026-03-20T19:58:26.297184
MEAN_MOTION    = 14.82153563
ECCENTRICITY   = .0001511
INCLINATION    = 97.8891
RA_OF_ASC_NODE = 267.8477
ARG_OF_PERICENTER = 86.6232
MEAN_ANOMALY   = 273.5154

EPHEMERIS_TYPE = 0
CLASSIFICATION_TYPE = U
NORAD_CAT_ID   = 43641
ELEMENT_SET_NO = 999
REV_AT_EPOCH   = 40301
BSTAR          = .95996E-4
MEAN_MOTION_DOT = .712E-5
MEAN_MOTION_DDOT = 0

CCSDS_OMM_VERS = 2.0
CREATION_DATE  = 
ORIGINATOR     = 

OBJECT_NAME    = H-2A R/B
OBJECT_ID      = 2018-084L
CENTER_NAME    = EARTH
REF_FRAME      = TEME
TIME_SYSTEM    = UTC
MEAN_ELEMENT_THEORY = SGP/SGP4

EPOCH          = 2026-03-20T04:23:47.959008
MEAN_MOTION    = 15.41759166
ECCENTRICITY   = .00245562
INCLINATION    = 98.8714
RA_OF_ASC_NODE = 298.8177
ARG_OF_PERICENTER = 349.1904
MEAN_ANOMALY   = 10.8807

EPHEMERIS_TYPE = 0
CLASSIFICATION_TYPE = U
NORAD_CAT_ID   = 43682
ELEMENT_SET_NO = 999
REV_AT_EPOCH   = 40739
BSTAR          = .29373396E-3
MEAN_MOTION_DOT = .12444E-3
MEAN_MOTION_DDOT = 0

CCSDS_OMM_VERS = 2.0
CREATION_DATE  = 
ORIGINATOR     = 

OBJECT_NAME    = SAOCOM 1B
OBJECT_ID      = 2020-059A
CENTER_NAME    = EARTH
REF_FRAME      = TEME
TIME_SYSTEM    = UTC
MEAN_ELEMENT_THEORY = SGP/SGP4

EPOCH          = 2026-03-20T19:06:10.409184
MEAN_MOTION    = 14.82146285
ECCENTRICITY   = .0001442
INCLINATION    = 97.8889
RA_OF_ASC_NODE = 266.9097
ARG_OF_PERICENTER = 89.2630
MEAN_ANOMALY   = 270.8748

EPHEMERIS_TYPE = 0
CLASSIFICATION_TYPE = U
NORAD_CAT_ID   = 46265
ELEMENT_SET_NO = 999
REV_AT_EPOCH   = 30039
BSTAR          = .43577E-4
MEAN_MOTION_DOT = .295E-5
MEAN_MOTION_DDOT = 0

CCSDS_OMM_VERS = 2.0
CREATION_DATE  = 
ORIGINATOR     = 

OBJECT_NAME    = CSS (TIANHE)
OBJECT_ID      = 2021-035A
CENTER_NAME    = EARTH
REF_FRAME      = TEME
TIME_SYSTEM    = UTC
MEAN_ELEMENT_THEORY = SGP/SGP4

EPOCH          = 2026-03-20T14:12:38.552832
MEAN_MOTION    = 15.61215573
ECCENTRICITY   = .0005638
INCLINATION    = 41.4664
RA_OF_ASC_NODE = 141.7960
ARG_OF_PERICENTER = 341.7172
MEAN_ANOMALY   = 18.3464

EPHEMERIS_TYPE = 0
CLASSIFICATION_TYPE = U
NORAD_CAT_ID   = 48274
ELEMENT_SET_NO = 999
REV_AT_EPOCH   = 27931
BSTAR          = .20859E-3
MEAN_MOTION_DOT = .1789E-3
MEAN_MOTION_DDOT = 0

CCSDS_OMM_VERS = 2.0
CREATION_DATE  = 
ORIGINATOR     = 

OBJECT_NAME    = COSMOS 2550
OBJECT_ID      = 2021-056A
CENTER_NAME    = EARTH
REF_FRAME      = TEME
TIME_SYSTEM    = UTC
MEAN_ELEMENT_THEORY = SGP/SGP4

EPOCH          = 2026-03-20T16:01:39.961632
MEAN_MOTION    = 15.33831865
ECCENTRICITY   = .00082
INCLINATION    = 67.1449
RA_OF_ASC_NODE = 7.6743
ARG_OF_PERICENTER = 268.9234
MEAN_ANOMALY   = 91.0981

EPHEMERIS_TYPE = 0
CLASSIFICATION_TYPE = U
NORAD_CAT_ID   = 48865
ELEMENT_SET_NO = 999
REV_AT_EPOCH   = 26514
BSTAR          = .1254E-6
MEAN_MOTION_DOT = -.188E-5
MEAN_MOTION_DDOT = 0

CCSDS_OMM_VERS = 2.0
CREATION_DATE  = 
ORIGINATOR     = 

OBJECT_NAME    = CZ-2C R/B
OBJECT_ID      = 2022-058K
CENTER_NAME    = EARTH
REF_FRAME      = TEME
TIME_SYSTEM    = UTC
MEAN_ELEMENT_THEORY = SGP/SGP4

EPOCH          = 2026-03-20T19:47:42.393408
MEAN_MOTION    = 15.54982036
ECCENTRICITY   = .0041838
INCLINATION    = 50.1873
RA_OF_ASC_NODE = 260.9749
ARG_OF_PERICENTER = 248.3971
MEAN_ANOMALY   = 111.2539

EPHEMERIS_TYPE = 0
CLASSIFICATION_TYPE = U
NORAD_CAT_ID   = 52794
ELEMENT_SET_NO = 999
REV_AT_EPOCH   = 21186
BSTAR          = .49986E-3
MEAN_MOTION_DOT = .35185E-3
MEAN_MOTION_DDOT = 0

CCSDS_OMM_VERS = 2.0
CREATION_DATE  = 
ORIGINATOR     = 

OBJECT_NAME    = CZ-2C R/B
OBJECT_ID      = 2022-132E
CENTER_NAME    = EARTH
REF_FRAME      = TEME
TIME_SYSTEM    = UTC
MEAN_ELEMENT_THEORY = SGP/SGP4

EPOCH          = 2026-03-20T10:51:05.567328
MEAN_MOTION    = 15.62785581
ECCENTRICITY   = .00194256
INCLINATION    = 97.2959
RA_OF_ASC_NODE = 83.1035
ARG_OF_PERICENTER = 57.1661
MEAN_ANOMALY   = 303.1464

EPHEMERIS_TYPE = 0
CLASSIFICATION_TYPE = U
NORAD_CAT_ID   = 54039
ELEMENT_SET_NO = 999
REV_AT_EPOCH   = 19205
BSTAR          = .3351708E-3
MEAN_MOTION_DOT = .30361E-3
MEAN_MOTION_DDOT = 0

CCSDS_OMM_VERS = 2.0
CREATION_DATE  = 
ORIGINATOR     = 

OBJECT_NAME    = GSLV R/B
OBJECT_ID      = 2022-138AN
CENTER_NAME    = EARTH
REF_FRAME      = TEME
TIME_SYSTEM    = UTC
MEAN_ELEMENT_THEORY = SGP/SGP4

EPOCH          = 2026-03-20T16:26:11.324256
MEAN_MOTION    = 14.96842691
ECCENTRICITY   = .0023969
INCLINATION    = 87.3869
RA_OF_ASC_NODE = 162.6819
ARG_OF_PERICENTER = 110.0573
MEAN_ANOMALY   = 250.3241

EPHEMERIS_TYPE = 0
CLASSIFICATION_TYPE = U
NORAD_CAT_ID   = 54149
ELEMENT_SET_NO = 999
REV_AT_EPOCH   = 18557
BSTAR          = .22936E-3
MEAN_MOTION_DOT = .2671E-4
MEAN_MOTION_DDOT = 0

